[{"OBJECT_NAME":"ION SCV-008","OBJECT_ID":"2023-001AU","EPOCH":"2026-03-09T19:46:58.662912","MEAN_MOTION":15.2722664,"ECCENTRICITY":0.00151921,"INCLINATION":97.5676,"RA_OF_ASC_NODE":163.606,"ARG_OF_PERICENTER":8.542,"MEAN_ANOMALY":351.6074,"EPHEMERIS_TYPE":0,"CLASSIFICATION_TYPE":"U","NORAD_CAT_ID":55051,"ELEMENT_SET_NO":999,"REV_AT_EPOCH":17616,"BSTAR":0.00031422806,"MEAN_MOTION_DOT":8.336e-5,"MEAN_MOTION_DDOT":0},{"OBJECT_NAME":"STARLINK-5697","OBJECT_ID":"2023-020W","EPOCH":"2026-03-09T22:00:01.999584","MEAN_MOTION":15.10960838,"ECCENTRICITY":8.729e-5,"INCLINATION":43.0005,"RA_OF_ASC_NODE":3.1004,"ARG_OF_PERICENTER":307.7189,"MEAN_ANOMALY":175.5763,"EPHEMERIS_TYPE":0,"CLASSIFICATION_TYPE":"U","NORAD_CAT_ID":55589,"ELEMENT_SET_NO":999,"REV_AT_EPOCH":573,"BSTAR":0.072755061,"MEAN_MOTION_DOT":0.01343581,"MEAN_MOTION_DDOT":0}]
